YOUTHSAT                
1 37388U 11015B   25230.92074525  .00000183  00000+0  94659-4 0  9991
2 37388  98.3308 214.2805 0015182 145.4442 268.3320 14.25423956744577
APRIZESAT 6             
1 37793U 11044F   25230.64789910  .00000737  00000+0  11315-3 0  9995
2 37793  98.2515 129.8511 0043144 335.1786  85.9327 14.76187065752505
JUGNU                   
1 37839U 11058B   25230.63147125  .00000413  00000+0  76676-4 0  9999
2 37839  19.9620 346.3701 0018672 335.6803  55.1754 14.13625033716161
SRMSAT                  
1 37841U 11058D   25230.93296251  .00000393  00000+0  69650-4 0  9991
2 37841  19.9721  88.8040 0011805 119.0018 269.1224 14.11453884715061
SUOMI NPP               
1 37849U 11061A   25230.88542411  .00000064  00000+0  51143-4 0  9992
2 37849  98.7589 169.3838 0002497  99.5583 260.5875 14.19553769715554
YAOGAN-12               
1 37875U 11066B   25230.93645018  .00006640  00000+0  27807-3 0  9994
2 37875  97.1612 278.6767 0009341 222.6224 137.4290 15.23820506765981
ZIYUAN 3-1 (ZY 3-1)     
1 38046U 12001A   25230.91397582  .00020588  00000+0  30387-3 0  9997
2 38046  97.1946 295.8470 0004235  59.8371 300.3303 15.55380882756905
BEIDOU-2 M4             
1 38251U 12018B   25229.74041059 -.00000079  00000+0  00000+0 0  9996
2 38251  55.9178 314.3288 0013973 265.0663  94.8233  1.86231929 90296
ARIRANG-3 (KOMPSAT-3)   
1 38338U 12025B   25230.91064239  .00000444  00000+0  99246-4 0  9996
2 38338  98.3109 184.7809 0005346 340.5269  19.5727 14.61490406707180
HORYU-2                 
1 38340U 12025D   25230.58391482  .00002754  00000+0  30582-3 0  9998
2 38340  98.1842 347.4759 0009800  91.9403 268.2935 14.88062292703674
CSSWE                   
1 38761U 12048D   25230.71180567  .00013786  00000+0  44791-3 0  9999
2 38761  64.6644  24.4649 0110315 256.7909 102.0894 15.26415049 69955
CP5                     
1 38763U 12048F   25230.92777003  .00007428  00000+0  30672-3 0  9990
2 38763  64.6523  64.1813 0129057 260.3034  98.3493 15.17424121 70731
METOP-B                 
1 38771U 12049A   25230.85724149  .00000077  00000+0  54589-4 0  9992
2 38771  98.5720 283.0770 0001935 115.2858 244.8520 14.21474303670304
SJ-9A                   
1 38860U 12056A   25230.89974698  .00000882  00000+0  11003-3 0  9996
2 38860  97.6314 209.7115 0026312 168.7488 191.4321 14.84543328693931
COSMOS 2484             
1 39059U 13001C   25230.89069304  .00000038  00000+0  20413-3 0  9995
2 39059  82.4991  49.8670 0025995 334.4418  25.5375 12.42925771571002
SARAL                   
1 39086U 13009A   25230.79822725  .00000102  00000+0  53541-4 0  9997
2 39086  98.5550  56.2210 0003056  96.8968 263.2564 14.32700844652303
AAUSAT 3                
1 39087U 13009B   25230.78264765  .00000617  00000+0  21216-3 0  9995
2 39087  98.3681  56.6214 0012458  44.7992 315.4199 14.39322560653666
STRAND-1                
1 39090U 13009E   25230.80021314  .00000288  00000+0  11167-3 0  9991
2 39090  98.3849  53.6621 0009762  59.1861 301.0285 14.36863642653636
BRITE-AUSTRIA           
1 39091U 13009F   25230.76126070  .00000176  00000+0  74618-4 0  9999
2 39091  98.3909  52.8682 0011357  66.1310 294.1066 14.36340930653631
UNIBRITE                
1 39092U 13009G   25230.46779383  .00000184  00000+0  77469-4 0  9994
2 39092  98.3950  52.6173 0010250  63.9085 296.3155 14.36212448653530
AIST-2 (RS-43)          
1 39133U 13015D   25230.88869856  .00005166  00000+0  23468-3 0  9992
2 39133  64.8702 162.4490 0031880 270.9654  88.7822 15.21461444677835
GAOFEN-1                
1 39150U 13018A   25230.88617682  .00000598  00000+0  92869-4 0  9998
2 39150  97.9459 303.5069 0018062 155.7914 204.4149 14.76551254663670
NEE-01 PEGASO           
1 39151U 13018B   25230.91588334  .00003040  00000+0  31154-3 0  9998
2 39151  98.0814   1.3886 0014518  80.5407 279.7451 14.91186403665616
TURKSAT-3USAT           
1 39152U 13018C   25230.23800142  .00002637  00000+0  25589-3 0  9994
2 39152  97.8069 317.7546 0013240  34.8429 325.3655 14.93452847665827
CUBEBUG-1 (CAPITAN BETO)
1 39153U 13018D   25230.89522206  .00003398  00000+0  32243-3 0  9999
2 39153  98.1286  13.7359 0013587  69.5686 290.6991 14.94190060665871
PROBA-V                 
1 39159U 13021A   25230.88587079  .00000087  00000+0  56283-4 0  9990
2 39159  98.3262 220.0003 0003144 310.0580  50.0323 14.23504257638109
ESTCUBE 1               
1 39161U 13021C   25230.12473691  .00001440  00000+0  19727-3 0  9999
2 39161  97.7756 289.4597 0006995 285.4677  74.5762 14.79952345660175
ARIRANG-5 (KOMPSAT-5)   
1 39227U 13042A   25230.88546854  .00001163  00000+0  87387-4 0  9990
2 39227  97.6204  56.8025 0004033  87.5750 272.5938 15.04506551658402
GONETS-M 5              
1 39249U 13048A   25230.92772892  .00000022  00000+0  86167-4 0  9996
2 39249  82.4852 171.8052 0016519 146.9845 213.2270 12.42867861541339
GONETS-M 7              
1 39251U 13048C   25230.81659432  .00000031  00000+0  14933-3 0  9992
2 39251  82.4918 174.6371 0017323 148.4814 211.7307 12.42900936541275
FENGYUN 3C              
1 39260U 13052A   25230.90358819  .00000094  00000+0  69042-4 0  9993
2 39260  98.4605 214.3170 0014838 169.1073 191.0425 14.15644127615798
CASSIOPE                
1 39265U 13055A   25230.95387625  .00024930 -51198-6  37654-3 0  9993
2 39265  80.9379  67.2052 0377430 344.7069  14.2980 15.01538274621944
APRIZESAT 7             
1 39416U 13066A   25230.62287556  .00001320  00000+0  13983-3 0  9994
2 39416  97.7258 184.2420 0037888 132.4793 227.9638 14.90297959636149
ZACUBE-1 (TSHEPISOSAT)  
1 39417U 13066B   25230.57283354  .00003899  00000+0  33580-3 0  9999
2 39417  97.7854 187.2596 0043793 175.1589 185.0065 14.97204784635382
APRIZESAT 8             
1 39425U 13066K   25230.43977347  .00000881  00000+0  10373-3 0  9998
2 39425  97.7800 178.0826 0046288 200.1423 159.7967 14.86611566634672
CINEMA-3 (KHUSAT-2)     
1 39426U 13066L   25230.66518932  .00001347  00000+0  18538-3 0  9994
2 39426  97.8412 145.9465 0093662 111.5360 249.5865 14.76895214629771
TRITON-1                
1 39427U 13066M   25230.82115476  .00001987  00000+0  25398-3 0  9991
2 39427  97.8309 142.8149 0094967 137.6908 223.1680 14.79366564629348
DELFI-N3XT              
1 39428U 13066N   25230.32768474  .00005122  00000+0  51363-3 0  9995
2 39428  97.8297 147.2204 0085070 129.8554 231.0187 14.89080491629456
GOMX-1                  
1 39430U 13066Q   25230.83978271  .00001398  00000+0  22286-3 0  9995
2 39430  97.6768  85.1776 0131261 328.1365  31.1948 14.67883619625710
BRITE-PL1 (LEM)         
1 39431U 13066R   25230.89222051  .00000865  00000+0  18414-3 0  9996
2 39431  97.7640   0.5522 0191061 231.2532 127.1456 14.50674500620090
ICUBE-1                 
1 39432U 13066S   25230.91776787  .00009369  00000+0  48942-3 0  9997
2 39432  97.5408 210.5355 0018209 309.6965  50.2661 15.15977776638467
HUMSAT-D                
1 39433U 13066T   25230.93033832  .00034501  00000+0  87737-3 0  9998
2 39433  97.5043 228.2896 0008889 202.2317 157.8544 15.39494688639884
VELOX-PII               
1 39438U 13066Y   25230.40724068  .00002917  00000+0  29776-3 0  9998
2 39438  97.8326 177.7492 0054004 264.8116  94.6937 14.90346904632696
FIRST-MOVE              
1 39439U 13066Z   25230.92362400  .00037555  00000+0  11720-2 0  9999
2 39439  97.7463 208.2767 0026936 101.3275 259.0994 15.32755157635679
CUBEBUG-2 (LO-74)       
1 39440U 13066AA  25230.84766540  .00003507  00000+0  35382-3 0  9996
2 39440  97.8512 174.9518 0060015 309.2305  50.3594 14.90426788631907
NEE-02 KRYSAOR          
1 39441U 13066AB  25230.55096569  .00002333  00000+0  27126-3 0  9995
2 39441  97.8559 167.8880 0068068 342.7348  17.1551 14.84662126631261
FUNCUBE-1 (AO-73)       
1 39444U 13066AE  25230.86299395  .00005353  00000+0  39362-3 0  9994
2 39444  97.7844 193.1031 0042299 147.0887 213.2984 15.03114883634145
HINCUBE                 
1 39445U 13066AF  25230.88052324  .00005142  00000+0  38785-3 0  9990
2 39445  97.7572 191.9168 0039467 151.1262 209.2158 15.02270075634049
UWE-3                   
1 39446U 13066AG  25230.29786220  .00002615  00000+0  24844-3 0  9998
2 39446  97.8275 180.8722 0050863 246.9778 112.6073 14.93425987632316
SMDC ONE 2.4            
1 39469U 13072H   25230.87554666  .00014321  00000+0  65488-3 0  9997
2 39469 120.4947 273.0057 0176061  50.6242 311.0279 15.08208944 72063
CP8 (IPEX)              
1 39471U 13072K   25230.76524856  .00012043  00000+0  65137-3 0  9996
2 39471 120.4687 235.0942 0191038  40.5888 320.9250 15.00964748 69712
COSMOS 2488             
1 39483U 13076A   25230.85144968  .00000023  00000+0  91551-4 0  9990
2 39483  82.4888 357.1023 0019415  37.6258 322.6175 12.42864828528331
COSMOS 2489             
1 39484U 13076B   25230.82381244  .00000015  00000+0  37009-4 0  9997
2 39484  82.4924 358.4036 0021189  37.7448 322.5113 12.42866903528386
COSMOS 2490             
1 39485U 13076C   25230.87569034  .00000007  00000+0 -22255-4 0  9997
2 39485  82.4872 356.5699 0021642  53.3725 306.9341 12.42864493528324
AIST-1 (RS-41)          
1 39492U 13078C   25230.92513608  .00001560  00000+0  14118-3 0  9991
2 39492  82.4159 203.3945 0016446 204.8325 155.2107 14.94698674630074
KAZEOSAT 1              
1 39731U 14024A   25230.91466615  .00000156  00000+0  60682-4 0  9991
2 39731  98.3559 305.3456 0001175 101.8683 258.2638 14.42052222594995
COSMOS 2496             
1 39761U 14028A   25230.83468678  .00000011  00000+0  73316-5 0  9999
2 39761  82.4458 298.1022 0019835  23.0937 337.1030 12.42892373510029
COSMOS 2497             
1 39762U 14028B   25230.89037856  .00000009  00000+0 -28336-5 0  9996
2 39762  82.4509 299.6373 0020209  17.5165 342.6607 12.42864597509969
COSMOS 2498             
1 39763U 14028C   25230.89161200  .00000012  00000+0  17509-4 0  9990
2 39763  82.4468 298.2563 0020913  16.8838 343.2933 12.42966925509991
